start=new Date('2021-09-07T00:00:00.000Z').valueOf();
sats=[{"REV_AT_EPOCH":"2449","RA_OF_ASC_NODE":"355.8392","MEAN_MOTION":"15.06407146","EPOCH":"2021-09-06T18:59:37.837824","SEMIMAJOR_AXIS":"6925.327","DECAY_DATE":null,"LAUNCH_DATE":"2021-04-07","MEAN_ELEMENT_THEORY":"SGP4","INCLINATION":"53.0566","ECCENTRICITY":"0.00011680","GP_ID":"184226275","MEAN_MOTION_DOT":"-0.00000561","PERIAPSIS":"546.383","CENTER_NAME":"EARTH","OBJECT_NAME":"STARLINK-2479","BSTAR":"-0.00001874500000","MEAN_ANOMALY":"238.4372","SITE":"AFETR","OBJECT_ID":"2021-027AW","FILE":"3109923","RCS_SIZE":"LARGE","MEAN_MOTION_DDOT":"0.0000000000000","TIME_SYSTEM":"UTC","OBJECT_TYPE":"PAYLOAD","CLASSIFICATION_TYPE":"U","PERIOD":"95.592","REF_FRAME":"TEME","TLE_LINE2":"2 48136  53.0566 355.8392 0001168 121.6731 238.4372 15.06407146 24493","ARG_OF_PERICENTER":"121.6731","ELEMENT_SET_NO":"999","NORAD_CAT_ID":"48136","EPHEMERIS_TYPE":"0","TLE_LINE1":"1 48136U 21027AW  21249.79141016 -.00000561  00000-0 -18745-4 0  9994","COUNTRY_CODE":"US","APOAPSIS":"548.001"},{"PERIOD":"95.592","CLASSIFICATION_TYPE":"U","REF_FRAME":"TEME","RCS_SIZE":"LARGE","MEAN_MOTION_DDOT":"0.0000000000000","TIME_SYSTEM":"UTC","OBJECT_TYPE":"PAYLOAD","FILE":"3109923","MEAN_ANOMALY":"224.4534","BSTAR":"-0.00001189500000","OBJECT_ID":"2021-027AX","SITE":"AFETR","COUNTRY_CODE":"US","APOAPSIS":"547.799","TLE_LINE1":"1 48137U 21027AX  21249.68542040 -.00000458  00000-0 -11895-4 0  9999","EPHEMERIS_TYPE":"0","NORAD_CAT_ID":"48137","ELEMENT_SET_NO":"999","ARG_OF_PERICENTER":"135.6524","TLE_LINE2":"2 48137  53.0407 336.3780 0000864 135.6524 224.4534 15.06404346 24753","LAUNCH_DATE":"2021-04-07","DECAY_DATE":null,"MEAN_MOTION":"15.06404346","REV_AT_EPOCH":"2475","RA_OF_ASC_NODE":"336.3780","SEMIMAJOR_AXIS":"6925.335","EPOCH":"2021-09-06T16:27:00.322560","OBJECT_NAME":"STARLINK-2480","CENTER_NAME":"EARTH","PERIAPSIS":"546.602","MEAN_MOTION_DOT":"-0.00000458","GP_ID":"184226026","ECCENTRICITY":"0.00008640","MEAN_ELEMENT_THEORY":"SGP4","INCLINATION":"53.0407"},{"EPOCH":"2021-09-06T18:38:25.012896","SEMIMAJOR_AXIS":"6925.366","REV_AT_EPOCH":"2449","RA_OF_ASC_NODE":"355.9120","MEAN_MOTION":"15.06394169","DECAY_DATE":null,"LAUNCH_DATE":"2021-04-07","INCLINATION":"53.0576","MEAN_ELEMENT_THEORY":"SGP4","ECCENTRICITY":"0.00011680","GP_ID":"184224774","MEAN_MOTION_DOT":"-0.00000445","PERIAPSIS":"546.423","CENTER_NAME":"EARTH","OBJECT_NAME":"STARLINK-2481","SITE":"AFETR","OBJECT_ID":"2021-027AY","BSTAR":"-0.00001101600000","MEAN_ANOMALY":"243.6893","FILE":"3109923","OBJECT_TYPE":"PAYLOAD","TIME_SYSTEM":"UTC","MEAN_MOTION_DDOT":"0.0000000000000","RCS_SIZE":"LARGE","REF_FRAME":"TEME","PERIOD":"95.593","CLASSIFICATION_TYPE":"U","ARG_OF_PERICENTER":"116.4216","TLE_LINE2":"2 48138  53.0576 355.9120 0001168 116.4216 243.6893 15.06394169 24492","ELEMENT_SET_NO":"999","NORAD_CAT_ID":"48138","EPHEMERIS_TYPE":"0","TLE_LINE1":"1 48138U 21027AY  21249.77667839 -.00000445  00000-0 -11016-4 0  9995","APOAPSIS":"548.040","COUNTRY_CODE":"US"},{"LAUNCH_DATE":"2021-04-07","DECAY_DATE":null,"EPOCH":"2021-09-06T13:38:30.746688","SEMIMAJOR_AXIS":"6925.350","REV_AT_EPOCH":"2474","RA_OF_ASC_NODE":"336.8432","MEAN_MOTION":"15.06399638","PERIAPSIS":"546.502","CENTER_NAME":"EARTH","OBJECT_NAME":"STARLINK-2482","MEAN_MOTION_DOT":"0.00001076","ECCENTRICITY":"0.00010290","GP_ID":"184198101","INCLINATION":"53.0561","MEAN_ELEMENT_THEORY":"SGP4","REF_FRAME":"TEME","PERIOD":"95.592","CLASSIFICATION_TYPE":"U","TIME_SYSTEM":"UTC","OBJECT_TYPE":"PAYLOAD","RCS_SIZE":"LARGE","MEAN_MOTION_DDOT":"0.0000000000000","FILE":"3109699","SITE":"AFETR","OBJECT_ID":"2021-027AZ","BSTAR":"0.00009112800000","MEAN_ANOMALY":"216.7199","APOAPSIS":"547.927","COUNTRY_CODE":"US","EPHEMERIS_TYPE":"0","TLE_LINE1":"1 48139U 21027AZ  21249.56841142  .00001076  00000-0  91128-4 0  9995","NORAD_CAT_ID":"48139","TLE_LINE2":"2 48139  53.0561 336.8432 0001029 143.3860 216.7199 15.06399638 24745","ARG_OF_PERICENTER":"143.3860","ELEMENT_SET_NO":"999"},{"TLE_LINE2":"2 48140  53.0568 356.3902 0001227 125.1386 234.9718 15.06397578 24474","ARG_OF_PERICENTER":"125.1386","ELEMENT_SET_NO":"999","NORAD_CAT_ID":"48140","TLE_LINE1":"1 48140U 21027BA  21249.66883875 -.00000494  00000-0 -14290-4 0  9997","EPHEMERIS_TYPE":"0","COUNTRY_CODE":"US","APOAPSIS":"548.071","BSTAR":"-0.00001429000000","MEAN_ANOMALY":"234.9718","SITE":"AFETR","OBJECT_ID":"2021-027BA","FILE":"3109923","RCS_SIZE":"LARGE","MEAN_MOTION_DDOT":"0.0000000000000","TIME_SYSTEM":"UTC","OBJECT_TYPE":"PAYLOAD","PERIOD":"95.592","CLASSIFICATION_TYPE":"U","REF_FRAME":"TEME","MEAN_ELEMENT_THEORY":"SGP4","INCLINATION":"53.0568","ECCENTRICITY":"0.00012270","GP_ID":"184225776","MEAN_MOTION_DOT":"-0.00000494","CENTER_NAME":"EARTH","PERIAPSIS":"546.371","OBJECT_NAME":"STARLINK-2483","REV_AT_EPOCH":"2447","RA_OF_ASC_NODE":"356.3902","MEAN_MOTION":"15.06397578","EPOCH":"2021-09-06T16:03:07.668000","SEMIMAJOR_AXIS":"6925.356","DECAY_DATE":null,"LAUNCH_DATE":"2021-04-07"},{"LAUNCH_DATE":"2021-04-07","EPOCH":"2021-09-06T18:11:52.318752","SEMIMAJOR_AXIS":"6925.373","REV_AT_EPOCH":"2450","RA_OF_ASC_NODE":"355.9977","MEAN_MOTION":"15.06392134","DECAY_DATE":null,"MEAN_MOTION_DOT":"-0.00000683","PERIAPSIS":"546.497","CENTER_NAME":"EARTH","OBJECT_NAME":"STARLINK-2484","INCLINATION":"53.0581","MEAN_ELEMENT_THEORY":"SGP4","ECCENTRICITY":"0.00010700","GP_ID":"184226526","TIME_SYSTEM":"UTC","OBJECT_TYPE":"PAYLOAD","MEAN_MOTION_DDOT":"0.0000000000000","RCS_SIZE":"LARGE","REF_FRAME":"TEME","PERIOD":"95.593","CLASSIFICATION_TYPE":"U","SITE":"AFETR","OBJECT_ID":"2021-027BB","BSTAR":"-0.00002695200000","MEAN_ANOMALY":"222.4415","FILE":"3109923","TLE_LINE1":"1 48141U 21027BB  21249.75824443 -.00000683  00000-0 -26952-4 0  9992","EPHEMERIS_TYPE":"0","APOAPSIS":"547.979","COUNTRY_CODE":"US","TLE_LINE2":"2 48141  53.0581 355.9977 0001070 137.6656 222.4415 15.06392134 24504","ARG_OF_PERICENTER":"137.6656","ELEMENT_SET_NO":"999","NORAD_CAT_ID":"48141"},{"CENTER_NAME":"EARTH","PERIAPSIS":"546.668","OBJECT_NAME":"STARLINK-2485","MEAN_MOTION_DOT":"0.00001379","ECCENTRICITY":"0.00008150","GP_ID":"184197851","INCLINATION":"53.0577","MEAN_ELEMENT_THEORY":"SGP4","LAUNCH_DATE":"2021-04-07","DECAY_DATE":null,"EPOCH":"2021-09-06T13:33:15.027264","SEMIMAJOR_AXIS":"6925.367","RA_OF_ASC_NODE":"336.8657","REV_AT_EPOCH":"2474","MEAN_MOTION":"15.06393926","APOAPSIS":"547.797","COUNTRY_CODE":"US","TLE_LINE1":"1 48142U 21027BC  21249.56475726  .00001379  00000-0  11147-3 0  9998","EPHEMERIS_TYPE":"0","NORAD_CAT_ID":"48142","ARG_OF_PERICENTER":"141.5125","TLE_LINE2":"2 48142  53.0577 336.8657 0000815 141.5125 218.5922 15.06393926 24749","ELEMENT_SET_NO":"999","REF_FRAME":"TEME","PERIOD":"95.593","CLASSIFICATION_TYPE":"U","TIME_SYSTEM":"UTC","OBJECT_TYPE":"PAYLOAD","MEAN_MOTION_DDOT":"0.0000000000000","RCS_SIZE":"LARGE","FILE":"3109699","SITE":"AFETR","OBJECT_ID":"2021-027BC","BSTAR":"0.00011147000000","MEAN_ANOMALY":"218.5922"},{"SEMIMAJOR_AXIS":"6727.829","EPOCH":"2021-09-06T21:16:10.829280","MEAN_MOTION":"15.73223071","RA_OF_ASC_NODE":"304.1775","REV_AT_EPOCH":"2522","DECAY_DATE":null,"LAUNCH_DATE":"2021-04-07","INCLINATION":"53.0454","MEAN_ELEMENT_THEORY":"SGP4","GP_ID":"184225025","ECCENTRICITY":"0.00051060","MEAN_MOTION_DOT":"0.00012226","OBJECT_NAME":"STARLINK-2486","CENTER_NAME":"EARTH","PERIAPSIS":"346.259","OBJECT_ID":"2021-027BD","SITE":"AFETR","MEAN_ANOMALY":"352.0089","BSTAR":"0.00009128000000","FILE":"3109923","OBJECT_TYPE":"PAYLOAD","TIME_SYSTEM":"UTC","RCS_SIZE":"LARGE","MEAN_MOTION_DDOT":"0.0000000000000","REF_FRAME":"TEME","CLASSIFICATION_TYPE":"U","PERIOD":"91.532","ELEMENT_SET_NO":"999","TLE_LINE2":"2 48143  53.0454 304.1775 0005106   8.1010 352.0089 15.73223071 25221","ARG_OF_PERICENTER":"8.1010","NORAD_CAT_ID":"48143","TLE_LINE1":"1 48143U 21027BD  21249.88623645  .00012226  00000-0  91280-4 0  9999","EPHEMERIS_TYPE":"0","APOAPSIS":"353.130","COUNTRY_CODE":"US"},{"BSTAR":"-0.00002853200000","MEAN_ANOMALY":"214.8506","SITE":"AFETR","OBJECT_ID":"2021-027BE","FILE":"3109699","MEAN_MOTION_DDOT":"0.0000000000000","RCS_SIZE":"LARGE","TIME_SYSTEM":"UTC","OBJECT_TYPE":"PAYLOAD","CLASSIFICATION_TYPE":"U","PERIOD":"95.593","REF_FRAME":"TEME","TLE_LINE2":"2 48144  53.0574 337.1309 0001010 145.2549 214.8506 15.06390610 24727","ARG_OF_PERICENTER":"145.2549","ELEMENT_SET_NO":"999","NORAD_CAT_ID":"48144","EPHEMERIS_TYPE":"0","TLE_LINE1":"1 48144U 21027BE  21249.50575865 -.00000706  00000-0 -28532-4 0  9991","COUNTRY_CODE":"US","APOAPSIS":"547.942","RA_OF_ASC_NODE":"337.1309","REV_AT_EPOCH":"2472","MEAN_MOTION":"15.06390610","EPOCH":"2021-09-06T12:08:17.547360","SEMIMAJOR_AXIS":"6925.377","DECAY_DATE":null,"LAUNCH_DATE":"2021-04-07","MEAN_ELEMENT_THEORY":"SGP4","INCLINATION":"53.0574","ECCENTRICITY":"0.00010100","GP_ID":"184196350","MEAN_MOTION_DOT":"-0.00000706","CENTER_NAME":"EARTH","PERIAPSIS":"546.543","OBJECT_NAME":"STARLINK-2487"},{"APOAPSIS":"547.828","COUNTRY_CODE":"US","TLE_LINE1":"1 48145U 21027BF  21249.70848403  .00001872  00000-0  14452-3 0  9993","EPHEMERIS_TYPE":"0","NORAD_CAT_ID":"48145","ELEMENT_SET_NO":"999","ARG_OF_PERICENTER":"128.6036","TLE_LINE2":"2 48145  53.0561 336.2144 0000902 128.6036 231.5034 15.06403351 24769","REF_FRAME":"TEME","PERIOD":"95.592","CLASSIFICATION_TYPE":"U","TIME_SYSTEM":"UTC","OBJECT_TYPE":"PAYLOAD","MEAN_MOTION_DDOT":"0.0000000000000","RCS_SIZE":"LARGE","FILE":"3109923","OBJECT_ID":"2021-027BF","SITE":"AFETR","MEAN_ANOMALY":"231.5034","BSTAR":"0.00014452000000","OBJECT_NAME":"STARLINK-2488","CENTER_NAME":"EARTH","PERIAPSIS":"546.579","MEAN_MOTION_DOT":"0.00001872","GP_ID":"184226027","ECCENTRICITY":"0.00009020","INCLINATION":"53.0561","MEAN_ELEMENT_THEORY":"SGP4","LAUNCH_DATE":"2021-04-07","DECAY_DATE":null,"SEMIMAJOR_AXIS":"6925.338","EPOCH":"2021-09-06T17:00:13.020192","MEAN_MOTION":"15.06403351","RA_OF_ASC_NODE":"336.2144","REV_AT_EPOCH":"2476"}];
